KUIPER-00074            
1 64821U 25151F   25267.33336806 -.01206320  00000+0 -61955-1 0  9991
2 64821  51.8822 310.5538 0012653  67.1468  89.2192 15.18878406  5300
KUIPER-00075            
1 64822U 25151G   25267.31297717  .00051266  00000+0  13543-2 0  9992
2 64822  51.8792 309.3573 0006311  27.2135 332.9181 15.37916678 10761
KUIPER-00076            
1 64823U 25151H   25267.33336806 -.00765330  00000+0 -45335-1 0  9997
2 64823  51.8819 311.6137 0006070  52.6814   4.6778 15.13628920  4977
KUIPER-00077            
1 64824U 25151J   25267.33336806 -.00083969  00000+0 -73582-2 0  9995
2 64824  51.9201 314.4344 0006604  20.2089 111.2701 14.96587815  5804
KUIPER-00078            
1 64825U 25151K   25267.33336806 -.00010736  00000+0 -72731-3 0  9994
2 64825  51.8866 312.8791 0009679  84.8332  80.3403 15.05067753  5339
KUIPER-00079            
1 64826U 25151L   25267.33336806 -.00019542  00000+0 -20365-2 0  9994
2 64826  51.8979 316.1277 0012290  49.9436 185.8756 14.88948807  4879
KUIPER-00080            
1 64827U 25151M   25267.33336806 -.01402898  00000+0 -16843+0 0  9999
2 64827  51.8975 316.2735 0006451  67.7873 247.7875 14.86728553  1308
KUIPER-00082            
1 64828U 25151N   25267.33336806 -.00467891  00000+0 -19676-1 0  9992
2 64828  51.8853 309.9977 0006463  42.0421  77.7611 15.24967465  4446
KUIPER-00083            
1 64829U 25151P   25267.33336806 -.00015699  00000+0 -10374-2 0  9995
2 64829  51.8858 312.9024 0009965  44.2491  12.0017 15.06320018  5484
KUIPER-00084            
1 64830U 25151Q   25267.15097566  .00005824  00000+0  79358-3 0  9999
2 64830  51.8999 321.9263 0011522  32.5352 327.6318 14.79842319 10572
KUIPER-00085            
1 64831U 25151R   25267.33336806 -.00284503  00000+0 -12391-1 0  9990
2 64831  51.8877 310.0557 0008847  38.2526  11.9589 15.22943936  5703
KUIPER-00086            
1 64832U 25151S   25267.33336806 -.00586599  00000+0 -51911-1 0  9992
2 64832  51.9146 314.5104 0010372  48.8237 277.8969 14.98119222  5747
KUIPER-00087            
1 64833U 25151T   25266.42092957  .00041172  00000+0  11184-2 0  9998
2 64833  51.8782 313.8726 0007440  34.1727 325.9737 15.37146507 10619
KUIPER-00089            
1 64834U 25151U   25267.33336806 -.01151919  00000+0 -40652-1 0  9999
2 64834  51.8803 309.7214 0006665  46.9731 205.1651 15.31698537  5273
KUIPER-00090            
1 64835U 25151V   25266.83387929  .00068089  00000+0  18588-2 0  9992
2 64835  51.8789 312.1340 0008086  49.5068 310.6622 15.36761280 10688
KUIPER-00091            
1 64836U 25151W   25267.33336806 -.00596351  00000+0 -19027-1 0  9995
2 64836  51.8793 309.4492 0008018  36.1511 333.3300 15.34391661  5422
KUIPER-00092            
1 64837U 25151X   25267.33336806 -.00562681  00000+0 -28187-1 0  9992
2 64837  51.8806 310.6730 0009605  30.8576 122.7453 15.19074078  5547
KUIPER-00093            
1 64838U 25151Y   25267.33336806 -.00521333  00000+0 -31455-1 0  9994
2 64838  51.8931 311.7446 0014128  51.4951 229.3826 15.12336088  4299
KUIPER-00094            
1 64839U 25151Z   25267.33336806 -.00343019  00000+0 -12717-1 0  9998
2 64839  51.8816 309.6818 0008934  48.6346 193.8448 15.28529822  4589
KUIPER-00081            
1 65132U 25171A   25267.10939248  .00101242  00000+0  27328-2 0  9994
2 65132  51.8761 194.3288 0007451 306.7227  53.3075 15.36924065  7951
KUIPER-00088            
1 65133U 25171B   25267.10923631  .00075528  00000+0  20535-2 0  9994
2 65133  51.8762 194.3303 0004530 277.0681  82.9790 15.36861164  7952
KUIPER-00095            
1 65134U 25171C   25267.06252676  .00068830  00000+0  19159-2 0  9992
2 65134  51.8770 194.7568 0003848 320.0579  40.0123 15.36174963  7943
KUIPER-00096            
1 65135U 25171D   25267.18500216  .00079359  00000+0  21809-2 0  9995
2 65135  51.8756 194.0773 0003886 304.6437  55.4183 15.36507268  7968
KUIPER-00097            
1 65136U 25171E   25267.06395017  .00081859  00000+0  22712-2 0  9996
2 65136  51.8772 194.7663 0003400 316.2751  43.7965 15.36195446  7938
KUIPER-00098            
1 65137U 25171F   25267.11090000  .00032004  00000+0  88590-3 0  9992
2 65137  51.8765 194.3377 0004683 270.2894  89.7556 15.36696802  7297
KUIPER-00099            
1 65138U 25171G   25267.11346333  .00071085  00000+0  19447-2 0  9992
2 65138  51.8761 194.3593 0004367 284.2244  75.8257 15.36697217  7944
KUIPER-00100            
1 65139U 25171H   25267.18451401  .00075366  00000+0  20739-2 0  9995
2 65139  51.8762 194.0748 0004417 305.6751  54.3824 15.36488742  7956
KUIPER-00102            
1 65140U 25171J   25267.06339357  .00065803  00000+0  18372-2 0  9994
2 65140  51.8767 194.7593 0003462 316.2787  43.7924 15.36101490  7937
KUIPER-00103            
1 65141U 25171K   25267.33336806 -.00887311  00000+0 -32387-1 0  9990
2 65141  51.8784 193.5781 0004822 300.1216  58.7812 15.30359823  5606
KUIPER-00104            
1 65142U 25171L   25267.05607633  .00068978  00000+0  19083-2 0  9996
2 65142  51.8779 194.7239 0003497 293.3416  66.7202 15.36364880  7939
KUIPER-00105            
1 65143U 25171M   25267.10558858  .00096775  00000+0  26069-2 0  9995
2 65143  51.8768 194.3031 0004841 273.4058  86.6375 15.37024355  7954
KUIPER-00106            
1 65144U 25171N   25267.33336806 -.01202202  00000+0 -48034-1 0  9990
2 65144  51.8773 193.6700 0004740 266.2042  23.2765 15.27376334  4365
KUIPER-00107            
1 65145U 25171P   25267.18286367  .00065161  00000+0  17949-2 0  9990
2 65145  51.8764 194.0728 0004693 294.3255  65.7241 15.36522621  7967
KUIPER-00108            
1 65146U 25171Q   25266.54426336  .00050128  00000+0  14070-2 0  9991
2 65146  51.8775 197.2923 0004264 311.4550  48.6069 15.36056741  7867
KUIPER-00109            
1 65147U 25171R   25267.11273214  .00072697  00000+0  19843-2 0  9999
2 65147  51.8766 194.3492 0004279 285.6781  74.3733 15.36757847  7949
KUIPER-00110            
1 65148U 25171S   25267.33336806  .00050491  00000+0  16182-2 0  9992
2 65148  51.8786 193.3785 0004356 292.7427 154.5044 15.31854944  5392
KUIPER-00111            
1 65149U 25171T   25267.33336806 -.00394465  00000+0 -17791-1 0  9993
2 65149  51.8810 194.1268 0005218 295.2522 163.9579 15.22304367  4708
KUIPER-00112            
1 65150U 25171U   25267.19537611  .00074133  00000+0  20625-2 0  9992
2 65150  51.8774 194.1529 0004728 319.2237  40.8394 15.36152875  7952
KUIPER-00114            
1 65151U 25171V   25267.33336806 -.00910101  00000+0 -50939-1 0  9998
2 65151  51.8894 195.0020 0003263 293.3278  36.1314 15.15677396  4967
KUIPER-00115            
1 65152U 25171W   25267.33336806 -.00315555  00000+0 -99296-2 0  9991
2 65152  51.8765 193.3337 0006759 273.0943 204.1666 15.33678370  5639
KUIPER-00116            
1 65153U 25171X   25267.33336806  .00039401  00000+0  17873-2 0  9994
2 65153  51.8854 194.2455 0004088 272.5437  85.6914 15.20433854  5219
KUIPER-00118            
1 65154U 25171Y   25267.33336806 -.00670227  00000+0 -36024-1 0  9992
2 65154  51.8836 194.8692 0003421 288.4822 170.0479 15.16729424  5292
KUIPER-00119            
1 65155U 25171Z   25265.54868336  .00108335  00000+0  29368-2 0  9990
2 65155  51.8754 201.8660 0005393 277.3215  82.7159 15.36766200  7706
